CCSDS_OMM_VERS = 2.0
CREATION_DATE  = 
ORIGINATOR     = 

OBJECT_NAME    = STARLINK-35278
OBJECT_ID      = 2025-224W
CENTER_NAME    = EARTH
REF_FRAME      = TEME
TIME_SYSTEM    = UTC
MEAN_ELEMENT_THEORY = SGP/SGP4

EPOCH          = 2025-10-31T16:00:01.998720
MEAN_MOTION    = 15.49333190
ECCENTRICITY   = .0001097
INCLINATION    = 53.1597
RA_OF_ASC_NODE = 252.3321
ARG_OF_PERICENTER = 95.1392
MEAN_ANOMALY   = 4.4752

EPHEMERIS_TYPE = 0
CLASSIFICATION_TYPE = U
NORAD_CAT_ID   = 65902
ELEMENT_SET_NO = 999
REV_AT_EPOCH   = 514
BSTAR          = -.96767E-3
MEAN_MOTION_DOT = -.53941E-3
MEAN_MOTION_DDOT = 0

CCSDS_OMM_VERS = 2.0
CREATION_DATE  = 
ORIGINATOR     = 

OBJECT_NAME    = STARLINK-35210
OBJECT_ID      = 2025-224X
CENTER_NAME    = EARTH
REF_FRAME      = TEME
TIME_SYSTEM    = UTC
MEAN_ELEMENT_THEORY = SGP/SGP4

EPOCH          = 2025-10-31T16:00:01.998720
MEAN_MOTION    = 15.49256767
ECCENTRICITY   = .0001279
INCLINATION    = 53.1597
RA_OF_ASC_NODE = 252.3363
ARG_OF_PERICENTER = 114.2167
MEAN_ANOMALY   = 343.4958

EPHEMERIS_TYPE = 0
CLASSIFICATION_TYPE = U
NORAD_CAT_ID   = 65903
ELEMENT_SET_NO = 999
REV_AT_EPOCH   = 512
BSTAR          = .20501E-2
MEAN_MOTION_DOT = .115049E-2
MEAN_MOTION_DDOT = 0

CCSDS_OMM_VERS = 2.0
CREATION_DATE  = 
ORIGINATOR     = 

OBJECT_NAME    = STARLINK-35348
OBJECT_ID      = 2025-224Y
CENTER_NAME    = EARTH
REF_FRAME      = TEME
TIME_SYSTEM    = UTC
MEAN_ELEMENT_THEORY = SGP/SGP4

EPOCH          = 2025-10-31T16:00:01.998720
MEAN_MOTION    = 15.49284614
ECCENTRICITY   = .0001105
INCLINATION    = 53.1599
RA_OF_ASC_NODE = 252.3400
ARG_OF_PERICENTER = 95.2328
MEAN_ANOMALY   = 0.5575

EPHEMERIS_TYPE = 0
CLASSIFICATION_TYPE = U
NORAD_CAT_ID   = 65904
ELEMENT_SET_NO = 999
REV_AT_EPOCH   = 509
BSTAR          = .3708E-3
MEAN_MOTION_DOT = .2021E-3
MEAN_MOTION_DDOT = 0

CCSDS_OMM_VERS = 2.0
CREATION_DATE  = 
ORIGINATOR     = 

OBJECT_NAME    = STARLINK-35380
OBJECT_ID      = 2025-224Z
CENTER_NAME    = EARTH
REF_FRAME      = TEME
TIME_SYSTEM    = UTC
MEAN_ELEMENT_THEORY = SGP/SGP4

EPOCH          = 2025-10-31T16:00:01.998720
MEAN_MOTION    = 15.49356728
ECCENTRICITY   = .0001103
INCLINATION    = 53.1597
RA_OF_ASC_NODE = 252.3292
ARG_OF_PERICENTER = 100.1041
MEAN_ANOMALY   = 1.4742

EPHEMERIS_TYPE = 0
CLASSIFICATION_TYPE = U
NORAD_CAT_ID   = 65905
ELEMENT_SET_NO = 999
REV_AT_EPOCH   = 509
BSTAR          = -.28491E-2
MEAN_MOTION_DOT = -.156044E-2
MEAN_MOTION_DDOT = 0

CCSDS_OMM_VERS = 2.0
CREATION_DATE  = 
ORIGINATOR     = 

OBJECT_NAME    = STARLINK-35385
OBJECT_ID      = 2025-224AA
CENTER_NAME    = EARTH
REF_FRAME      = TEME
TIME_SYSTEM    = UTC
MEAN_ELEMENT_THEORY = SGP/SGP4

EPOCH          = 2025-10-31T16:00:01.998720
MEAN_MOTION    = 15.49285777
ECCENTRICITY   = .0001197
INCLINATION    = 53.1597
RA_OF_ASC_NODE = 252.3206
ARG_OF_PERICENTER = 111.2095
MEAN_ANOMALY   = 354.1721

EPHEMERIS_TYPE = 0
CLASSIFICATION_TYPE = U
NORAD_CAT_ID   = 65906
ELEMENT_SET_NO = 999
REV_AT_EPOCH   = 512
BSTAR          = .30486E-3
MEAN_MOTION_DOT = .16529E-3
MEAN_MOTION_DDOT = 0

CCSDS_OMM_VERS = 2.0
CREATION_DATE  = 
ORIGINATOR     = 

OBJECT_NAME    = STARLINK-35347
OBJECT_ID      = 2025-224AB
CENTER_NAME    = EARTH
REF_FRAME      = TEME
TIME_SYSTEM    = UTC
MEAN_ELEMENT_THEORY = SGP/SGP4

EPOCH          = 2025-10-31T16:00:01.998720
MEAN_MOTION    = 15.49286448
ECCENTRICITY   = .000104
INCLINATION    = 53.1596
RA_OF_ASC_NODE = 252.3163
ARG_OF_PERICENTER = 99.4435
MEAN_ANOMALY   = 7.8476

EPHEMERIS_TYPE = 0
CLASSIFICATION_TYPE = U
NORAD_CAT_ID   = 65907
ELEMENT_SET_NO = 999
REV_AT_EPOCH   = 512
BSTAR          = .35587E-3
MEAN_MOTION_DOT = .19377E-3
MEAN_MOTION_DDOT = 0

CCSDS_OMM_VERS = 2.0
CREATION_DATE  = 
ORIGINATOR     = 

OBJECT_NAME    = STARLINK-35329
OBJECT_ID      = 2025-224AC
CENTER_NAME    = EARTH
REF_FRAME      = TEME
TIME_SYSTEM    = UTC
MEAN_ELEMENT_THEORY = SGP/SGP4

EPOCH          = 2025-10-31T16:00:01.998720
MEAN_MOTION    = 15.49334218
ECCENTRICITY   = .0001243
INCLINATION    = 53.1597
RA_OF_ASC_NODE = 252.3242
ARG_OF_PERICENTER = 80.7878
MEAN_ANOMALY   = 22.6641

EPHEMERIS_TYPE = 0
CLASSIFICATION_TYPE = U
NORAD_CAT_ID   = 65908
ELEMENT_SET_NO = 999
REV_AT_EPOCH   = 513
BSTAR          = -.10094E-2
MEAN_MOTION_DOT = -.56233E-3
MEAN_MOTION_DDOT = 0

CCSDS_OMM_VERS = 2.0
CREATION_DATE  = 
ORIGINATOR     = 

OBJECT_NAME    = STARLINK-35387
OBJECT_ID      = 2025-224AD
CENTER_NAME    = EARTH
REF_FRAME      = TEME
TIME_SYSTEM    = UTC
MEAN_ELEMENT_THEORY = SGP/SGP4

EPOCH          = 2025-10-31T16:00:01.998720
MEAN_MOTION    = 15.49320147
ECCENTRICITY   = .0001389
INCLINATION    = 53.1596
RA_OF_ASC_NODE = 252.3120
ARG_OF_PERICENTER = 111.6534
MEAN_ANOMALY   = 357.5465

EPHEMERIS_TYPE = 0
CLASSIFICATION_TYPE = U
NORAD_CAT_ID   = 65909
ELEMENT_SET_NO = 999
REV_AT_EPOCH   = 509
BSTAR          = -.47874E-3
MEAN_MOTION_DOT = -.26993E-3
MEAN_MOTION_DDOT = 0

CCSDS_OMM_VERS = 2.0
CREATION_DATE  = 
ORIGINATOR     = 

OBJECT_NAME    = STARLINK-35523
OBJECT_ID      = 2025-225A
CENTER_NAME    = EARTH
REF_FRAME      = TEME
TIME_SYSTEM    = UTC
MEAN_ELEMENT_THEORY = SGP/SGP4

EPOCH          = 2025-10-31T16:00:01.998720
MEAN_MOTION    = 15.55950135
ECCENTRICITY   = .0001283
INCLINATION    = 53.1600
RA_OF_ASC_NODE = 47.5612
ARG_OF_PERICENTER = 58.1871
MEAN_ANOMALY   = 92.9839

EPHEMERIS_TYPE = 0
CLASSIFICATION_TYPE = U
NORAD_CAT_ID   = 65910
ELEMENT_SET_NO = 999
REV_AT_EPOCH   = 466
BSTAR          = -.321E-1
MEAN_MOTION_DOT = -.2027948E-1
MEAN_MOTION_DDOT = 0

CCSDS_OMM_VERS = 2.0
CREATION_DATE  = 
ORIGINATOR     = 

OBJECT_NAME    = STARLINK-35160
OBJECT_ID      = 2025-225B
CENTER_NAME    = EARTH
REF_FRAME      = TEME
TIME_SYSTEM    = UTC
MEAN_ELEMENT_THEORY = SGP/SGP4

EPOCH          = 2025-10-31T16:00:01.998720
MEAN_MOTION    = 15.55949811
ECCENTRICITY   = .0001288
INCLINATION    = 53.1598
RA_OF_ASC_NODE = 47.5582
ARG_OF_PERICENTER = 60.2928
MEAN_ANOMALY   = 92.7945

EPHEMERIS_TYPE = 0
CLASSIFICATION_TYPE = U
NORAD_CAT_ID   = 65911
ELEMENT_SET_NO = 999
REV_AT_EPOCH   = 461
BSTAR          = -.32067E-1
MEAN_MOTION_DOT = -.2026051E-1
MEAN_MOTION_DDOT = 0

CCSDS_OMM_VERS = 2.0
CREATION_DATE  = 
ORIGINATOR     = 

OBJECT_NAME    = STARLINK-35508
OBJECT_ID      = 2025-225C
CENTER_NAME    = EARTH
REF_FRAME      = TEME
TIME_SYSTEM    = UTC
MEAN_ELEMENT_THEORY = SGP/SGP4

EPOCH          = 2025-10-31T16:00:01.998720
MEAN_MOTION    = 15.55947816
ECCENTRICITY   = .0001338
INCLINATION    = 53.1604
RA_OF_ASC_NODE = 47.5529
ARG_OF_PERICENTER = 61.9542
MEAN_ANOMALY   = 93.0517

EPHEMERIS_TYPE = 0
CLASSIFICATION_TYPE = U
NORAD_CAT_ID   = 65912
ELEMENT_SET_NO = 999
REV_AT_EPOCH   = 461
BSTAR          = -.3203E-1
MEAN_MOTION_DOT = -.2023875E-1
MEAN_MOTION_DDOT = 0

CCSDS_OMM_VERS = 2.0
CREATION_DATE  = 
ORIGINATOR     = 

OBJECT_NAME    = STARLINK-35472
OBJECT_ID      = 2025-225D
CENTER_NAME    = EARTH
REF_FRAME      = TEME
TIME_SYSTEM    = UTC
MEAN_ELEMENT_THEORY = SGP/SGP4

EPOCH          = 2025-10-31T16:00:01.998720
MEAN_MOTION    = 15.55956589
ECCENTRICITY   = .0001348
INCLINATION    = 53.1602
RA_OF_ASC_NODE = 47.5490
ARG_OF_PERICENTER = 59.5607
MEAN_ANOMALY   = 97.3551

EPHEMERIS_TYPE = 0
CLASSIFICATION_TYPE = U
NORAD_CAT_ID   = 65913
ELEMENT_SET_NO = 999
REV_AT_EPOCH   = 465
BSTAR          = -.32186E-1
MEAN_MOTION_DOT = -.2033288E-1
MEAN_MOTION_DDOT = 0

