STARLINK-35278          
1 65902U 25224W   25304.66668980 -.00053941  00000+0 -96767-3 0  9991
2 65902  53.1597 252.3321 0001097  95.1392   4.4752 15.49333190  5148
STARLINK-35210          
1 65903U 25224X   25304.66668980  .00115049  00000+0  20501-2 0  9990
2 65903  53.1597 252.3363 0001279 114.2167 343.4958 15.49256767  5126
STARLINK-35348          
1 65904U 25224Y   25304.66668980  .00020210  00000+0  37080-3 0  9997
2 65904  53.1599 252.3400 0001105  95.2328   0.5575 15.49284614  5090
STARLINK-35380          
1 65905U 25224Z   25304.66668980 -.00156044  00000+0 -28491-2 0  9990
2 65905  53.1597 252.3292 0001103 100.1041   1.4742 15.49356728  5096
STARLINK-35385          
1 65906U 25224AA  25304.66668980  .00016529  00000+0  30486-3 0  9990
2 65906  53.1597 252.3206 0001197 111.2095 354.1721 15.49285777  5121
STARLINK-35347          
1 65907U 25224AB  25304.66668980  .00019377  00000+0  35587-3 0  9992
2 65907  53.1596 252.3163 0001040  99.4435   7.8476 15.49286448  5120
STARLINK-35329          
1 65908U 25224AC  25304.66668980 -.00056233  00000+0 -10094-2 0  9992
2 65908  53.1597 252.3242 0001243  80.7878  22.6641 15.49334218  5138
STARLINK-35387          
1 65909U 25224AD  25304.66668980 -.00026993  00000+0 -47874-3 0  9990
2 65909  53.1596 252.3120 0001389 111.6534 357.5465 15.49320147  5092
STARLINK-35523          
1 65910U 25225A   25304.66668980 -.02027948  00000+0 -32100-1 0  9990
2 65910  53.1600  47.5612 0001283  58.1871  92.9839 15.55950135  4662
STARLINK-35160          
1 65911U 25225B   25304.66668980 -.02026051  00000+0 -32067-1 0  9997
2 65911  53.1598  47.5582 0001288  60.2928  92.7945 15.55949811  4617
STARLINK-35508          
1 65912U 25225C   25304.66668980 -.02023875  00000+0 -32030-1 0  9999
2 65912  53.1604  47.5529 0001338  61.9542  93.0517 15.55947816  4615
STARLINK-35472          
1 65913U 25225D   25304.66668980 -.02033288  00000+0 -32186-1 0  9991
2 65913  53.1602  47.5490 0001348  59.5607  97.3551 15.55956589  4653
